OBJECT_NAME,OBJECT_ID,EPOCH,MEAN_MOTION,ECCENTRICITY,INCLINATION,RA_OF_ASC_NODE,ARG_OF_PERICENTER,MEAN_ANOMALY,EPHEMERIS_TYPE,CLASSIFICATION_TYPE,NORAD_CAT_ID,ELEMENT_SET_NO,REV_AT_EPOCH,BSTAR,MEAN_MOTION_DOT,MEAN_MOTION_DDOT
STARLINK-31377,2024-027H,2026-06-09T12:24:49.921344,15.30178671,.00012445,53.1599,243.3701,79.7113,280.4028,0,U,58938,999,13138,.76298748E-4,.19E-4,0
STARLINK-31372,2024-027J,2026-06-09T12:15:41.837760,15.30186915,.00010029,53.1601,243.3301,86.9288,273.1828,0,U,58939,999,13138,.70847886E-4,.1739E-4,0
STARLINK-31371,2024-027K,2026-06-09T12:14:10.188096,15.30193207,.00011789,53.1605,243.3242,77.9655,282.1478,0,U,58940,999,13138,.19045077E-3,.5284E-4,0
STARLINK-31345,2024-027L,2026-06-09T22:20:53.453472,15.30191683,.00014349,53.1600,240.9792,93.8696,266.2468,0,U,58941,999,13145,.10536078E-3,.2762E-4,0
STARLINK-31354,2024-027M,2026-06-09T22:07:43.020480,15.31699165,.00011001,53.1606,240.9240,120.5967,239.5143,0,U,58942,999,13145,.11700542E-3,.3267E-4,0
STARLINK-31346,2024-027N,2026-06-09T22:25:59.636064,15.30850080,.00013829,53.1588,238.8785,74.6841,285.4313,0,U,58943,999,13148,.30972927E-3,.901E-4,0
STARLINK-31336,2024-027P,2026-06-09T12:23:18.072096,15.30204108,.00013888,53.1588,243.3653,121.9729,238.1407,0,U,58944,999,13137,.19920792E-3,.5546E-4,0
STARLINK-31359,2024-027Q,2026-06-09T19:45:18.650592,15.30191171,.00011933,53.1592,203.2349,93.8318,266.2819,0,U,58945,999,13198,.21931367E-4,.29E-5,0
STARLINK-31331,2024-027R,2026-06-09T12:23:48.287040,15.31696786,.00011635,53.1593,242.6559,96.6362,263.4772,0,U,58946,999,13139,.81295432E-4,.2158E-4,0
STARLINK-31116,2024-027S,2026-06-09T12:30:30.070368,15.31682505,.00010335,53.1576,242.6861,93.8153,266.2967,0,U,58947,999,13139,-.21051443E-3,-.6888E-4,0
STARLINK-31311,2024-027T,2026-06-09T22:33:48.227328,15.30189766,.00012588,53.1603,238.9076,86.4859,273.6286,0,U,58948,999,13148,.15153936E-4,.9E-6,0
STARLINK-31294,2024-027U,2026-06-09T12:30:53.792352,15.30220943,.00007692,53.1572,243.3929,85.1236,274.9852,0,U,58949,999,13138,.4253011E-3,.12266E-3,0
STARLINK-31330,2024-027W,2026-06-09T12:17:38.653152,15.34395650,.00004329,53.1588,239.1012,77.1440,282.9611,0,U,58951,999,13144,.18995322E-3,.6046E-4,0
STARLINK-31293,2024-027X,2026-06-09T22:00:59.608512,15.31705913,.00008588,53.1606,240.8890,89.3013,270.8087,0,U,58952,999,13145,.14825537E-3,.4239E-4,0
HBTSS-SV2,2024-028A,2026-06-10T02:00:42.954336,13.70469464,.00198669,39.9917,76.5320,201.2996,158.6925,0,U,58955,999,11609,.11545137E-3,.26E-6,0
RAPTOR4,2024-028B,2026-06-10T01:30:51.085728,13.70499092,.00150974,39.9945,77.1714,202.6792,157.3289,0,U,58956,999,11607,.25400698E-4,-.55E-6,0
RAPTOR1,2024-028C,2026-06-10T02:08:16.428192,13.70768203,.00123936,39.9908,76.5289,214.8602,145.1334,0,U,58957,999,11608,.22789294E-4,-.57E-6,0
RAPTOR3,2024-028D,2026-06-10T00:48:05.476608,13.70486316,.0011902,39.9916,76.2288,217.4040,142.5879,0,U,58958,999,11608,.13396251E-4,-.66E-6,0
RAPTOR2,2024-028E,2026-06-10T06:55:30.481536,13.70555984,.00121097,39.9912,74.6492,220.7392,139.2450,0,U,58959,999,11612,.3007292E-4,-.51E-6,0
HBTSS-SV1,2024-028F,2026-06-06T18:42:35.794080,14.95214125,.00094942,39.9876,179.3589,128.2916,231.8730,0,U,58960,999,10562,.28499308E-3,.3049E-4,0
STARLINK-31373,2024-031A,2026-06-09T21:20:52.717920,15.30188536,.00012357,53.1605,228.1381,120.6221,239.4902,0,U,58965,999,13065,.34148588E-4,.652E-5,0
STARLINK-31449,2024-031B,2026-06-09T21:17:49.953408,15.30198194,.00011588,53.1577,228.1246,85.3200,274.7933,0,U,58966,999,13065,.11157668E-3,.2947E-4,0
STARLINK-31314,2024-031C,2026-06-09T21:26:57.306912,15.30196733,.00012029,53.1599,228.1629,97.4976,262.6162,0,U,58967,999,13065,-.10504313E-4,-.67E-5,0
STARLINK-31356,2024-031D,2026-06-09T14:13:48.085824,15.30194358,.0001227,53.1595,201.9573,83.5489,276.5651,0,U,58968,999,13099,.15161501E-3,.4133E-4,0
STARLINK-31335,2024-031E,2026-06-09T11:22:12.881280,15.34413940,.00014287,53.1584,226.9732,99.0184,261.0980,0,U,58969,999,13063,.36678039E-3,.12041E-3,0
STARLINK-31368,2024-031F,2026-06-09T21:25:25.264992,15.30220537,.00012042,53.1592,228.1607,76.7666,283.3469,0,U,58970,999,13065,.11871772E-3,.3161E-4,0
STARLINK-31333,2024-031G,2026-06-09T20:58:58.003680,15.30188667,.00014427,53.1588,215.9661,84.3545,275.7620,0,U,58971,999,13082,.40296661E-4,.834E-5,0
STARLINK-31351,2024-031H,2026-06-09T21:51:15.623136,15.30192646,.00009738,53.1583,228.2644,87.8010,272.3102,0,U,58972,999,13064,.76745932E-4,.1914E-4,0
STARLINK-31365,2024-031J,2026-06-09T22:00:22.898880,15.30191810,.00011902,53.1591,228.3028,95.7849,264.3288,0,U,58973,999,13065,.78031445E-4,.1952E-4,0
STARLINK-31361,2024-031K,2026-06-09T21:55:49.852416,15.30196466,.00012139,53.1586,228.2828,83.7337,276.3802,0,U,58974,999,13065,.1440813E-3,.391E-4,0
