STARLINK-31377          
1 58938U 24027H   26160.51724446  .00001900  00000+0  76299-4 0  9992
2 58938  53.1599 243.3701 0001244  79.7113 280.4028 15.30178671131385
STARLINK-31372          
1 58939U 24027J   26160.51090090  .00001739  00000+0  70848-4 0  9998
2 58939  53.1601 243.3301 0001002  86.9288 273.1828 15.30186915131388
STARLINK-31371          
1 58940U 24027K   26160.50984014  .00005284  00000+0  19045-3 0  9997
2 58940  53.1605 243.3242 0001178  77.9655 282.1478 15.30193207131383
STARLINK-31345          
1 58941U 24027L   26160.93117423  .00002762  00000+0  10536-3 0  9991
2 58941  53.1600 240.9792 0001434  93.8696 266.2468 15.30191683131455
STARLINK-31354          
1 58942U 24027M   26160.92202570  .00003267  00000+0  11701-3 0  9995
2 58942  53.1606 240.9240 0001100 120.5967 239.5143 15.31699165131451
STARLINK-31346          
1 58943U 24027N   26160.93471801  .00009010  00000+0  30973-3 0  9996
2 58943  53.1588 238.8785 0001382  74.6841 285.4313 15.30850080131489
STARLINK-31336          
1 58944U 24027P   26160.51618139  .00005546  00000+0  19921-3 0  9998
2 58944  53.1588 243.3653 0001388 121.9729 238.1407 15.30204108131373
STARLINK-31359          
1 58945U 24027Q   26160.82313253  .00000290  00000+0  21931-4 0  9998
2 58945  53.1592 203.2349 0001193  93.8318 266.2819 15.30191171131982
STARLINK-31331          
1 58946U 24027R   26160.51653110  .00002158  00000+0  81295-4 0  9998
2 58946  53.1593 242.6559 0001163  96.6362 263.4772 15.31696786131396
STARLINK-31116          
1 58947U 24027S   26160.52118137 -.00006888  00000+0 -21051-3 0  9994
2 58947  53.1576 242.6861 0001033  93.8153 266.2967 15.31682505131398
STARLINK-31311          
1 58948U 24027T   26160.94014152  .00000090  00000+0  15154-4 0  9998
2 58948  53.1603 238.9076 0001258  86.4859 273.6286 15.30189766131482
STARLINK-31294          
1 58949U 24027U   26160.52145593  .00012266  00000+0  42530-3 0  9992
2 58949  53.1572 243.3929 0000769  85.1236 274.9852 15.30220943131381
STARLINK-31330          
1 58951U 24027W   26160.51225293  .00006046  00000+0  18995-3 0  9997
2 58951  53.1588 239.1012 0000432  77.1440 282.9611 15.34395650131443
STARLINK-31293          
1 58952U 24027X   26160.91735658  .00004239  00000+0  14826-3 0  9994
2 58952  53.1606 240.8890 0000858  89.3013 270.8087 15.31705913131459
HBTSS-SV2               
1 58955U 24028A   26161.08383049  .00000026  00000+0  11545-3 0  9995
2 58955  39.9917  76.5320 0019866 201.2996 158.6925 13.70469464116091
RAPTOR4                 
1 58956U 24028B   26161.06309127 -.00000055  00000+0  25401-4 0  9999
2 58956  39.9945  77.1714 0015097 202.6792 157.3289 13.70499092116075
RAPTOR1                 
1 58957U 24028C   26161.08907903 -.00000057  00000+0  22789-4 0  9996
2 58957  39.9908  76.5289 0012393 214.8602 145.1334 13.70768203116086
RAPTOR3                 
1 58958U 24028D   26161.03339672 -.00000066  00000+0  13396-4 0  9998
2 58958  39.9916  76.2288 0011902 217.4040 142.5879 13.70486316116089
RAPTOR2                 
1 58959U 24028E   26161.28854724 -.00000051  00000+0  30073-4 0  9991
2 58959  39.9912  74.6492 0012109 220.7392 139.2450 13.70555984116123
HBTSS-SV1               
1 58960U 24028F   26157.77958095  .00003049  00000+0  28499-3 0  9995
2 58960  39.9876 179.3589 0009494 128.2916 231.8730 14.95214125105621
STARLINK-31373          
1 58965U 24031A   26160.88949905  .00000652  00000+0  34149-4 0  9997
2 58965  53.1605 228.1381 0001235 120.6221 239.4902 15.30188536130659
STARLINK-31449          
1 58966U 24031B   26160.88738372  .00002947  00000+0  11158-3 0  9995
2 58966  53.1577 228.1246 0001158  85.3200 274.7933 15.30198194130653
STARLINK-31314          
1 58967U 24031C   26160.89371883 -.00000670  00000+0 -10504-4 0  9995
2 58967  53.1599 228.1629 0001202  97.4976 262.6162 15.30196733130654
STARLINK-31356          
1 58968U 24031D   26160.59291766  .00004133  00000+0  15162-3 0  9994
2 58968  53.1595 201.9573 0001227  83.5489 276.5651 15.30194358130995
STARLINK-31335          
1 58969U 24031E   26160.47376020  .00012041  00000+0  36678-3 0  9991
2 58969  53.1584 226.9732 0001428  99.0184 261.0980 15.34413940130635
STARLINK-31368          
1 58970U 24031F   26160.89265353  .00003161  00000+0  11872-3 0  9997
2 58970  53.1592 228.1607 0001204  76.7666 283.3469 15.30220537130655
STARLINK-31333          
1 58971U 24031G   26160.87428245  .00000834  00000+0  40297-4 0  9995
2 58971  53.1588 215.9661 0001442  84.3545 275.7620 15.30188667130820
STARLINK-31351          
1 58972U 24031H   26160.91059749  .00001914  00000+0  76746-4 0  9998
2 58972  53.1583 228.2644 0000973  87.8010 272.3102 15.30192646130647
STARLINK-31365          
1 58973U 24031J   26160.91693170  .00001952  00000+0  78031-4 0  9992
2 58973  53.1591 228.3028 0001190  95.7849 264.3288 15.30191810130653
STARLINK-31361          
1 58974U 24031K   26160.91377144  .00003910  00000+0  14408-3 0  9996
2 58974  53.1586 228.2828 0001213  83.7337 276.3802 15.30196466130657
